NORAD_CAT_ID,OBJECT_NAME,OBJECT_TYPE,EPOCH,MEAN_MOTION,ECCENTRICITY,INCLINATION,RA_OF_ASC_NODE,ARG_OF_PERICENTER,MEAN_ANOMALY,BSTAR,MEAN_MOTION_DOT,MEAN_MOTION_DDOT,TLE_LINE0,TLE_LINE1,TLE_LINE2,SEMIMAJOR_AXIS,PERIOD,APOGEE,PERIGEE,DECAYED
52096.0,STARLINK-3717,PAYLOAD,2022-08-06 22:00:00,15.08808997,0.0002123,53.2139,203.4041,53.0928,112.6045,0.0018059,0.00028546,0.0,0 STARLINK-3717,1 52096U 22029J   22218.91667824  .00028546  00000-0  18059-2 0  9995,2 52096  53.2139 203.4041 0002123  53.0928 112.6045 15.08808997  1304,6917.975,95.44,541.309,538.371,0.0
52096.0,STARLINK-3717,PAYLOAD,2022-08-07 04:00:00,15.08834834,0.0002262,53.2138,202.2832,50.2736,34.0976,-0.0017547999999999,-0.00028105,0.0,0 STARLINK-3717,1 52096U 22029J   22219.16667824 -.00028105  00000-0 -17548-2 0  9998,2 52096  53.2138 202.2832 0002262  50.2736  34.0976 15.08834834 22939,6917.896,95.438,541.326,538.196,0.0
52096.0,STARLINK-3717,PAYLOAD,2022-08-07 14:00:01,15.08841617,0.0002288,53.2137,200.4124,48.8003,140.0348,-0.0019389,-0.00031016,0.0,0 STARLINK-3717,1 52096U 22029J   22219.58334491 -.00031016  00000-0 -19389-2 0  9995,2 52096  53.2137 200.4124 0002288  48.8003 140.0348 15.08841617  1306,6917.875,95.437,541.323,538.158,0.0
52096.0,STARLINK-3717,PAYLOAD,2022-08-07 20:00:01,15.08807279,0.0002193,53.2139,199.2889,52.5728,54.9591,0.0027586999999999,0.00043852,0.0,0 STARLINK-3717,1 52096U 22029J   22219.83334491  .00043852  00000-0  27587-2 0  9991,2 52096  53.2139 199.2889 0002193  52.5728  54.9591 15.08807279 23035,6917.98,95.44,541.363,538.328,0.0
52096.0,STARLINK-3717,PAYLOAD,2022-08-07 22:00:00,15.08821939,0.0002230999999999,53.214,198.9149,54.2553,146.1647,0.0016663,0.00026318,0.0,0 STARLINK-3717,1 52096U 22029J   22219.91667824  .00026318  00000-0  16663-2 0  9990,2 52096  53.2140 198.9149 0002231  54.2553 146.1647 15.08821939  1301,6917.936,95.439,541.344,538.257,0.0
52096.0,STARLINK-3717,PAYLOAD,2022-08-08 14:00:01,15.08863548,0.000236,53.214,195.9229,50.6942,172.9701,-0.0017661999999999,-0.00028307,0.0,0 STARLINK-3717,1 52096U 22029J   22220.58335648 -.00028307  00000-0 -17662-2 0  9993,2 52096  53.2140 195.9229 0002360  50.6942 172.9701 15.08863548 23148,6917.808000000001,95.436,541.306,538.0409999999998,0.0
52096.0,STARLINK-3717,PAYLOAD,2022-08-08 22:00:00,15.08856477,0.0002279999999999,53.2143,194.4255,55.7377,179.4735,0.00051784,7.967e-05,0.0,0 STARLINK-3717,1 52096U 22029J   22220.91667824  .00007967  00000-0  51784-3 0  9995,2 52096  53.2143 194.4255 0002280  55.7377 179.4735 15.08856477  1309,6917.83,95.437,541.2719999999998,538.118,0.0
52096.0,STARLINK-3717,PAYLOAD,2022-08-09 04:00:00,15.08863787,0.0002376999999999,53.2143,193.3046,51.4515,102.4737,-0.0030645,-0.00048764,0.0,0 STARLINK-3717,1 52096U 22029J   22221.16667824 -.00048764  00000-0 -30645-2 0  9997,2 52096  53.2143 193.3046 0002377  51.4515 102.4737 15.08863787 23235,6917.808000000001,95.436,541.317,538.028,0.0
52096.0,STARLINK-3717,PAYLOAD,2022-08-09 14:00:01,15.08858696,0.0002294,53.2144,191.4335,50.5238,207.8933,-0.0025366,-0.00040454,0.0,0 STARLINK-3717,1 52096U 22029J   22221.58334491 -.00040454  00000-0 -25366-2 0  9996,2 52096  53.2144 191.4335 0002294  50.5238 207.8933 15.08858696  1301,6917.823,95.436,541.275,538.101,0.0
52096.0,STARLINK-3717,PAYLOAD,2022-08-09 22:00:00,15.08834059,0.0002185,53.2148,189.9362,54.8064,215.2108,-0.00051093,-8.409e-05,0.0,0 STARLINK-3717,1 52096U 22029J   22221.91667824 -.00008409  00000-0 -51093-3 0  9993,2 52096  53.2148 189.9362 0002185  54.8064 215.2108 15.08834059 23342,6917.899,95.438,541.275,538.252,0.0
52096.0,STARLINK-3717,PAYLOAD,2022-08-10 14:00:01,15.08844387,0.0002231999999999,53.2148,186.9441,51.0417,242.1343,-0.0019961,-0.00031921,0.0,0 STARLINK-3717,1 52096U 22029J   22222.58334491 -.00031921  00000-0 -19961-2 0  9990,2 52096  53.2148 186.9441 0002232  51.0417 242.1343 15.08844387  1308,6917.8669999999975,95.437,541.276,538.188,0.0
52096.0,STARLINK-3717,PAYLOAD,2022-08-10 22:00:00,15.08835284,0.0002162,53.2156,185.446,56.1714,248.5893,0.00094148,0.00014726,0.0,0 STARLINK-3717,1 52096U 22029J   22222.91667824  .00014726  00000-0  94148-3 0  9999,2 52096  53.2156 185.4460 0002162  56.1714 248.5893 15.08835284  1306,6917.895,95.438,541.255,538.264,0.0
52096.0,STARLINK-3717,PAYLOAD,2022-08-11 04:00:00,15.08840181,0.0002311,53.215,184.3263,52.2291,171.2276,-0.00058652,-9.611e-05,0.0,0 STARLINK-3717,1 52096U 22029J   22223.16667824 -.00009611  00000-0 -58652-3 0  9996,2 52096  53.2150 184.3263 0002311  52.2291 171.2276 15.08840181 23530,6917.88,95.438,541.344,538.146,0.0
52096.0,STARLINK-3717,PAYLOAD,2022-08-11 14:00:01,15.08855884,0.000224,53.215,182.455,53.7174,274.2282,-0.0017320999999999,-0.00027762,0.0,0 STARLINK-3717,1 52096U 22029J   22223.58334491 -.00027762  00000-0 -17321-2 0  9997,2 52096  53.2150 182.4550 0002240  53.7174 274.2282 15.08855884  1303,6917.831999999999,95.437,541.246,538.1469999999998,0.0
52096.0,STARLINK-3717,PAYLOAD,2022-08-11 20:00:01,15.08837373,0.000215,53.2151,181.3319,57.8972,188.7536,0.0017251999999999,0.00027274,0.0,0 STARLINK-3717,1 52096U 22029J   22223.83334491  .00027274  00000-0  17252-2 0  9994,2 52096  53.2151 181.3319 0002150  57.8972 188.7536 15.08837373 23630,6917.888000000001,95.438,541.241,538.266,0.0
52096.0,STARLINK-3717,PAYLOAD,2022-08-12 14:00:01,15.08847183,0.0002162,53.215,177.9658,54.9389,307.8151,-0.0010372,-0.00016761,0.0,0 STARLINK-3717,1 52096U 22029J   22224.58334491 -.00016761  00000-0 -10372-2 0  9994,2 52096  53.2150 177.9658 0002162  54.9389 307.8151 15.08847183 23759,6917.858,95.437,541.219,538.2280000000002,0.0
52096.0,STARLINK-3717,PAYLOAD,2022-08-12 22:00:01,15.08854836,0.0002109,53.2153,176.4692,58.6342,315.769,-0.00061609,-0.00010084,0.0,0 STARLINK-3717,1 52096U 22029J   22224.91668981 -.00010084  00000-0 -61609-3 0  9997,2 52096  53.2153 176.4692 0002109  58.6342 315.7690 15.08854836  1301,6917.835,95.437,541.159,538.241,0.0
52096.0,STARLINK-3717,PAYLOAD,2022-08-13 14:00:01,15.08830755,0.0002114,53.2151,173.4768,55.1763,342.3549,-0.00075309,-0.00012251,0.0,0 STARLINK-3717,1 52096U 22029J   22225.58334491 -.00012251  00000-0 -75309-3 0  9997,2 52096  53.2151 173.4768 0002114  55.1763 342.3549 15.08830755 23908,6917.909000000002,95.438,541.236,538.311,0.0
52096.0,STARLINK-3717,PAYLOAD,2022-08-13 22:00:00,15.08841899,0.000213,53.2152,171.9804,58.6252,350.48,-0.00025535,-4.35e-05,0.0,0 STARLINK-3717,1 52096U 22029J   22225.91667824 -.00004350  00000-0 -25535-3 0  9990,2 52096  53.2152 171.9804 0002130  58.6252 350.4800 15.08841899  1303,6917.875,95.437,541.2130000000002,538.266,0.0
52096.0,STARLINK-3717,PAYLOAD,2022-08-14 06:00:02,15.08828673,0.0002293,53.2162,170.4852,53.1232,7.6433,0.00085892,0.00013404,0.0,0 STARLINK-3717,1 52096U 22029J   22226.25002315  .00013404  00000-0  85892-3 0  9996,2 52096  53.2162 170.4852 0002293  53.1232   7.6433 15.08828673 24009,6917.915,95.438,541.366,538.194,0.0
52096.0,STARLINK-3717,PAYLOAD,2022-08-14 14:00:01,15.088376,0.0002089999999999,53.2153,168.9876,55.5103,16.8004,-0.0015844,-0.00025415,0.0,0 STARLINK-3717,1 52096U 22029J   22226.58334491 -.00025415  00000-0 -15844-2 0  9991,2 52096  53.2153 168.9876 0002090  55.5103  16.8004 15.08837600  1309,6917.888000000001,95.438,541.1990000000002,538.307,0.0
52096.0,STARLINK-3717,PAYLOAD,2022-08-14 22:00:00,15.08841307,0.0002119,53.2153,167.4913,57.8086,26.0783,-0.00043709,-7.238e-05,0.0,0 STARLINK-3717,1 52096U 22029J   22226.91667824 -.00007238  00000-0 -43709-3 0  9992,2 52096  53.2153 167.4913 0002119  57.8086  26.0783 15.08841307  1308,6917.876,95.437,541.207,538.275,0.0
52096.0,STARLINK-3717,PAYLOAD,2022-08-15 06:00:00,15.08811128,0.0002254,53.2154,165.9965,52.5618,42.9199,0.003022,0.00048098,0.0,0 STARLINK-3717,1 52096U 22029J   22227.25001157  .00048098  00000-0  30220-2 0  9991,2 52096  53.2154 165.9965 0002254  52.5618  42.9199 15.08811128 24156,6917.969,95.439,541.393,538.274,0.0
52096.0,STARLINK-3717,PAYLOAD,2022-08-15 14:00:01,15.08848581,0.0002116,53.2156,164.4985,55.6751,51.3908,-0.0016549,-0.00026536,0.0,0 STARLINK-3717,1 52096U 22029J   22227.58334491 -.00026536  00000-0 -16549-2 0  9990,2 52096  53.2156 164.4985 0002116  55.6751  51.3908 15.08848581  1300,6917.854,95.437,541.183,538.255,0.0
52096.0,STARLINK-3717,PAYLOAD,2022-08-15 22:00:00,15.08841676,0.0002118,53.2156,163.0021,57.2336,61.4276,-0.0013331,-0.00021443,0.0,0 STARLINK-3717,1 52096U 22029J   22227.91667824 -.00021443  00000-0 -13331-2 0  9994,2 52096  53.2156 163.0021 0002118  57.2336  61.4276 15.08841676  1303,6917.875,95.437,541.205,538.275,0.0
52096.0,STARLINK-3717,PAYLOAD,2022-08-16 14:00:01,15.08830848,0.0002102,53.2157,160.0093,56.2124,85.6255,0.00091983,0.00014378,0.0,0 STARLINK-3717,1 52096U 22029J   22228.58334491  .00014378  00000-0  91983-3 0  9996,2 52096  53.2157 160.0093 0002102  56.2124  85.6255 15.08830848 24351,6917.908,95.438,541.2280000000002,538.319,0.0
52096.0,STARLINK-3717,PAYLOAD,2022-08-16 22:00:00,15.08873134,0.0002143,53.2158,158.5131,57.9136,95.5112,-0.0030096999999999,-0.00047914,0.0,0 STARLINK-3717,1 52096U 22029J   22228.91667824 -.00047914  00000-0 -30097-2 0  9994,2 52096  53.2158 158.5131 0002143  57.9136  95.5112 15.08873134  1300,6917.779,95.435,541.127,538.1619999999998,0.0
52096.0,STARLINK-3717,PAYLOAD,2022-08-17 14:00:01,15.08822886,0.0002034,53.2156,155.5199,56.5044,120.123,0.0014215999999999,0.00022399,0.0,0 STARLINK-3717,1 52096U 22029J   22229.58334491  .00022399  00000-0  14216-2 0  9992,2 52096  53.2156 155.5199 0002034  56.5044 120.1230 15.08822886 24502,6917.933000000001,95.439,541.205,538.391,0.0
52096.0,STARLINK-3717,PAYLOAD,2022-08-17 16:00:00,15.08812071,0.0002028,53.2155,155.1456,57.981,211.5464,0.0032051,0.00051052,0.0,0 STARLINK-3717,1 52096U 22029J   22229.66667824  .00051052  00000-0  32051-2 0  9995,2 52096  53.2155 155.1456 0002028  57.9810 211.5464 15.08812071  1304,6917.965999999999,95.439,541.234,538.428,0.0
